ONEWEB-0340             
1 49206U 21083W   25060.57538452  .00000065  00000+0  13095-3 0  9998
2 49206  87.9049  69.4306 0001744  89.5985 270.5347 13.18685149168973
ONEWEB-0341             
1 49207U 21083X   25060.50740333  .00000046  00000+0  82740-4 0  9998
2 49207  87.9047  69.4549 0001886  70.7697 289.3639 13.18683189168985
ONEWEB-0342             
1 49208U 21083Y   25060.40123061  .00000117  00000+0  25543-3 0  9997
2 49208  87.9308   8.5300 0001976  80.0560 280.0796 13.20770821175677
ONEWEB-0343             
1 49209U 21083Z   25059.74390279  .00000138  00000+0  31775-3 0  9997
2 49209  87.9041  69.5999 0002205  74.9366 285.2010 13.18684554167643
ONEWEB-0344             
1 49210U 21083AA  25060.48716922 -.00006099  00000+0 -16759-1 0  9996
2 49210  87.8902  54.2208 0001992  69.4582 290.6761 13.13424224170148
ONEWEB-0345             
1 49211U 21083AB  25060.50471087 -.00003615  00000+0 -99510-2 0  9998
2 49211  87.8891  54.1852 0001718  68.7331 291.3981 13.13384773170157
ONEWEB-0346             
1 49212U 21083AC  25060.51215918  .00000018  00000+0  12459-4 0  9990
2 49212  87.9049  69.4633 0001500  98.4528 261.6774 13.18685169168972
ONEWEB-0348             
1 49213U 21083AD  25059.55841119  .00000222  00000+0  51303-3 0  9998
2 49213  87.9316   8.6938 0001248  67.6254 292.5012 13.20770498174299
